{
    "links": {
        "self": "http://www.neowsapp.com/rest/v1/neo/3758269?api_key=iIulBulltgU6a56xZRHN4H3l9WmuAYTsLGpBGhQ2"
    },
    "id": "3758269",
    "neo_reference_id": "3758269",
    "name": "(2016 QD45)",
    "designation": "2016 QD45",
    "nasa_jpl_url": "http://ssd.jpl.nasa.gov/sbdb.cgi?sstr=3758269",
    "absolute_magnitude_h": 23.9,
    "estimated_diameter": {
        "kilometers": {
            "estimated_diameter_min": 0.04411182,
            "estimated_diameter_max": 0.0986370281
        },
        "meters": {
            "estimated_diameter_min": 44.1118199997,
            "estimated_diameter_max": 98.6370281305
        },
        "miles": {
            "estimated_diameter_min": 0.0274098057,
            "estimated_diameter_max": 0.0612901888
        },
        "feet": {
            "estimated_diameter_min": 144.7238235278,
            "estimated_diameter_max": 323.6123073718
        }
    },
    "is_potentially_hazardous_asteroid": false,
    "close_approach_data": [
        {
            "close_approach_date": "2016-09-09",
            "close_approach_date_full": "2016-Sep-09 09:32",
            "epoch_date_close_approach": 1473413520000,
            "relative_velocity": {
                "kilometers_per_second": "5.4340322054",
                "kilometers_per_hour": "19562.5159393565",
                "miles_per_hour": "12155.3866402074"
            },
            "miss_distance": {
                "astronomical": "0.1930915734",
                "lunar": "75.1126220526",
                "kilometers": "28886088.095588658",
                "miles": "17948982.8372051604"
            },
            "orbiting_body": "Earth"
        }
    ],
    "orbital_data": {
        "orbit_id": "8",
        "orbit_determination_date": "2017-04-06 08:24:18",
        "first_observation_date": "2016-08-27",
        "last_observation_date": "2016-10-07",
        "data_arc_in_days": 41,
        "observations_used": 36,
        "orbit_uncertainty": "6",
        "minimum_orbit_intersection": ".189237",
        "jupiter_tisserand_invariant": "3.210",
        "epoch_osculation": "2459000.5",
        "eccentricity": ".5363675077222702",
        "semi_major_axis": "2.561238043016122",
        "inclination": "5.684420418221766",
        "ascending_node_longitude": "142.5116979609864",
        "orbital_period": "1497.177675753321",
        "perihelion_distance": "1.1874731772001",
        "perihelion_argument": "211.3482747380691",
        "aphelion_distance": "3.935002908832144",
        "perihelion_time": "2459141.065099021197",
        "mean_anomaly": "326.2007813320025",
        "mean_motion": ".2404524231359929",
        "equinox": "J2000",
        "orbit_class": {
            "orbit_class_type": "AMO",
            "orbit_class_description": "Near-Earth asteroid orbits similar to that of 1221 Amor",
            "orbit_class_range": "1.017 AU < q (perihelion) < 1.3 AU"
        }
    },
    "is_sentry_object": false
}